IRIDIUM 36              
1 24967U 97056C   24266.12733081  .00000823  00000+0  27111-3 0  9997
2 24967  86.3909 285.5833 0002362  96.4120 263.7346 14.37044327413716
IRIDIUM 39              
1 25042U 97069D   24265.26217984  .00001602  00000+0  42186-3 0  9994
2 25042  86.3937 326.4406 0020136 121.4510 238.8666 14.48359525410024
IRIDIUM 38              
1 25043U 97069E   24265.47737884  .00001168  00000+0  38349-3 0  9997
2 25043  86.4013 346.2157 0000551 144.8609 215.2625 14.37538618407346
IRIDIUM 42              
1 25077U 97077A   24265.50556935  .00000995  00000+0  33718-3 0  9995
2 25077  86.4024 352.0372 0001456  92.9242 267.2121 14.35815079402632
IRIDIUM 44              
1 25078U 97077B   24265.48696128  .00000957  00000+0  29990-3 0  9997
2 25078  86.3993 334.6992 0002696 136.4689 223.6723 14.39658770405035
IRIDIUM 45              
1 25104U 97082A   24265.47104999  .00016800  00000+0  84707-3 0  9993
2 25104  86.3716 176.9124 0144381 248.0527 110.5313 15.08279083411344
IRIDIUM 24              
1 25105U 97082B   24266.08021999  .00001227  00000+0  37224-3 0  9999
2 25105  86.3980 193.8726 0009229 238.7299 121.2997 14.41477906404830
IRIDIUM 51              
1 25262U 98018A   24266.20909108  .00023036  00000+0  92530-3 0  9997
2 25262  86.3991 186.0633 0130681 181.8393 178.2388 15.17191921406312
